NORAD_CAT_ID,OBJECT_NAME,OBJECT_TYPE,EPOCH,MEAN_MOTION,ECCENTRICITY,INCLINATION,RA_OF_ASC_NODE,ARG_OF_PERICENTER,MEAN_ANOMALY,BSTAR,MEAN_MOTION_DOT,MEAN_MOTION_DDOT,TLE_LINE0,TLE_LINE1,TLE_LINE2,SEMIMAJOR_AXIS,PERIOD,APOGEE,PERIGEE,DECAYED
55772.0,STARLINK-5835,PAYLOAD,2024-02-26 08:57:55,14.98335287,0.0002802,69.9993,296.0057,264.1859,95.8981,2.3047e-05,1.82e-06,0.0,0 STARLINK-5835,1 55772U 23028AH  24057.37356247  .00000182  00000-0  23047-4 0  9997,2 55772  69.9993 296.0057 0002802 264.1859  95.8981 14.98335287 55346,6950.177,96.107,573.989,570.094,0.0
55772.0,STARLINK-5835,PAYLOAD,2024-02-26 20:10:53,14.98323015,0.0003232,69.9987,294.8281,276.4302,83.6489,-7.7457e-05,-1.017e-05,0.0,0 STARLINK-5835,1 55772U 23028AH  24057.84089466 -.00001017  00000-0 -77457-4 0  9999,2 55772  69.9987 294.8281 0003232 276.4302  83.6489 14.98323015 55413,6950.214,96.107,574.326,569.833,0.0
55772.0,STARLINK-5835,PAYLOAD,2024-02-27 08:59:57,14.98328198,0.0003122,69.9977,293.4797,270.6618,89.4183,1.2677e-05,5.8e-07,0.0,0 STARLINK-5835,1 55772U 23028AH  24058.37496810  .00000058  00000-0  12677-4 0  9998,2 55772  69.9977 293.4797 0003122 270.6618  89.4183 14.98328198 55493,6950.198,96.107,574.233,569.894,0.0
55772.0,STARLINK-5835,PAYLOAD,2024-02-27 21:49:01,14.9833202,0.0003097,69.9979,292.1332,268.4663,91.6141,-4.0253e-05,-5.73e-06,0.0,0 STARLINK-5835,1 55772U 23028AH  24058.90904760 -.00000573  00000-0 -40253-4 0  9990,2 55772  69.9979 292.1332 0003097 268.4663  91.6141 14.98332020 55579,6950.187,96.107,574.204,569.899,0.0
55772.0,STARLINK-5835,PAYLOAD,2024-02-28 09:01:57,14.98343943,0.0003256,69.9981,290.9556,250.9225,109.1582,-0.00023459,-2.892e-05,0.0,0 STARLINK-5835,1 55772U 23028AH  24059.37636151 -.00002892  00000-0 -23459-3 0  9992,2 55772  69.9981 290.9556 0003256 250.9225 109.1582 14.98343943 55641,6950.15,96.106,574.278,569.752,0.0
55772.0,STARLINK-5835,PAYLOAD,2024-02-28 20:14:54,14.98324997,0.0002965,69.9983,289.7771,271.278,88.8039,8.2791e-05,8.95e-06,0.0,0 STARLINK-5835,1 55772U 23028AH  24059.84368836  .00000895  00000-0  82791-4 0  9990,2 55772  69.9983 289.7771 0002965 271.2780  88.8039 14.98324997 55712,6950.208,96.107,574.134,570.013,0.0
55772.0,STARLINK-5835,PAYLOAD,2024-02-28 21:51:02,14.98328547,0.0002977,69.9983,289.6086,270.8869,89.1949,6.1011e-05,6.35e-06,0.0,0 STARLINK-5835,1 55772U 23028AH  24059.91044677  .00000635  00000-0  61011-4 0  9996,2 55772  69.9983 289.6086 0002977 270.8869  89.1949 14.98328547 55726,6950.197,96.107,574.131,569.993,0.0
55772.0,STARLINK-5835,PAYLOAD,2024-02-29 09:03:59,14.98320206,0.0002673,69.9989,288.4298,281.4467,78.6392,-4.6517e-05,-6.48e-06,0.0,0 STARLINK-5835,1 55772U 23028AH  24060.37777727 -.00000648  00000-0 -46517-4 0  9997,2 55772  69.9989 288.4298 0002673 281.4467  78.6392 14.98320206 55795,6950.223,96.108,573.946,570.23,0.0
55772.0,STARLINK-5835,PAYLOAD,2024-02-29 21:53:04,14.98317223,0.0002676,69.9988,287.0836,264.8187,95.2667,6.0229e-05,6.25e-06,0.0,0 STARLINK-5835,1 55772U 23028AH  24060.91185719  .00000625  00000-0  60229-4 0  9990,2 55772  69.9988 287.0836 0002676 264.8187  95.2667 14.98317223 55878,6950.232,96.108,573.957,570.238,0.0
55772.0,STARLINK-5835,PAYLOAD,2024-03-01 01:05:20,14.98322926,0.0002744,69.9988,286.7472,265.788,94.2966,-4.9798e-05,-6.87e-06,0.0,0 STARLINK-5835,1 55772U 23028AH  24061.04537706 -.00000687  00000-0 -49798-4 0  9990,2 55772  69.9988 286.7472 0002744 265.7880  94.2966 14.98322926 55895,6950.215,96.107,573.987,570.173,0.0
55772.0,STARLINK-5835,PAYLOAD,2024-03-01 20:18:57,14.98327943,0.0002987,69.9987,284.7272,272.6107,87.471,3.1403e-05,2.82e-06,0.0,0 STARLINK-5835,1 55772U 23028AH  24061.84649339  .00000282  00000-0  31403-4 0  9997,2 55772  69.9987 284.7272 0002987 272.6107  87.4710 14.98327943 56018,6950.199,96.107,574.14,569.988,0.0
55772.0,STARLINK-5835,PAYLOAD,2024-03-01 21:55:04,14.98328125,0.0002689,69.9986,284.5587,266.6713,93.4138,7.8131e-05,8.39e-06,0.0,0 STARLINK-5835,1 55772U 23028AH  24061.91325210  .00000839  00000-0  78131-4 0  9991,2 55772  69.9986 284.5587 0002689 266.6713  93.4138 14.98328125 56024,6950.199,96.107,573.933,570.195,0.0
55772.0,STARLINK-5835,PAYLOAD,2024-03-01 23:31:12,14.98340209,0.0002576,69.9985,284.3903,265.8521,94.2344,-0.00012858,-1.627e-05,0.0,0 STARLINK-5835,1 55772U 23028AH  24061.98000961 -.00001627  00000-0 -12858-3 0  9992,2 55772  69.9985 284.3903 0002576 265.8521  94.2344 14.98340209 56032,6950.161,96.106,573.817,570.236,0.0
55772.0,STARLINK-5835,PAYLOAD,2024-03-02 21:57:05,14.98336908,0.000302,69.9977,282.0328,276.0836,83.9979,0.00017579,2.005e-05,0.0,0 STARLINK-5835,1 55772U 23028AH  24062.91464245  .00002005  00000-0  17579-3 0  9999,2 55772  69.9977 282.0328 0003020 276.0836  83.9979 14.98336908 56172,6950.172,96.107,574.135,569.938,0.0
55772.0,STARLINK-5835,PAYLOAD,2024-03-03 01:09:21,14.98339007,0.0002974,69.9979,281.6966,274.7946,85.2873,0.00019341,2.216e-05,0.0,0 STARLINK-5835,1 55772U 23028AH  24063.04815991  .00002216  00000-0  19341-3 0  9995,2 55772  69.9979 281.6966 0002974 274.7946  85.2873 14.98339007 56194,6950.165,96.106,574.097,569.963,0.0
55772.0,STARLINK-5835,PAYLOAD,2024-03-03 07:33:52,14.98383493,0.0002607,69.9999,281.022,271.2712,88.8148,-0.00078797,-9.495e-05,0.0,0 STARLINK-5835,1 55772U 23028AH  24063.31519356 -.00009495  00000-0 -78797-3 0  9999,2 55772  69.9999 281.0220 0002607 271.2712  88.8148 14.98383493 56236,6950.027,96.104,573.704,570.081,0.0
55772.0,STARLINK-5835,PAYLOAD,2024-03-03 20:22:58,14.98333313,0.0002659,69.9975,279.6768,268.8678,91.2176,-2.1403e-05,-3.48e-06,0.0,0 STARLINK-5835,1 55772U 23028AH  24063.84928727 -.00000348  00000-0 -21403-4 0  9994,2 55772  69.9975 279.6768 0002659 268.8678  91.2176 14.98333313 56314,6950.183,96.107,573.896,570.2,0.0
55772.0,STARLINK-5835,PAYLOAD,2024-03-04 07:35:54,14.98324579,0.000264,69.9974,278.4988,267.8074,92.2782,0.0001874,2.143e-05,0.0,0 STARLINK-5835,1 55772U 23028AH  24064.31660662  .00002143  00000-0  18740-3 0  9990,2 55772  69.9974 278.4988 0002640 267.8074  92.2782 14.98324579 56388,6950.21,96.107,573.91,570.24,0.0
55772.0,STARLINK-5835,PAYLOAD,2024-03-04 20:24:58,14.9833747,0.0002865,69.9976,277.1513,267.922,92.1611,-5.9945e-05,-8.08e-06,0.0,0 STARLINK-5835,1 55772U 23028AH  24064.85068057 -.00000808  00000-0 -59945-4 0  9990,2 55772  69.9976 277.1513 0002865 267.9220  92.1611 14.98337470 56466,6950.17,96.107,574.026,570.044,0.0
55772.0,STARLINK-5835,PAYLOAD,2024-03-04 22:01:06,14.98338083,0.0002816,69.9978,276.9835,268.924,91.1597,-5.1956e-05,-7.13e-06,0.0,0 STARLINK-5835,1 55772U 23028AH  24064.91743979 -.00000713  00000-0 -51956-4 0  9999,2 55772  69.9978 276.9835 0002816 268.9240  91.1597 14.98338083 56475,6950.168,96.106,573.99,570.076,0.0
55772.0,STARLINK-5835,PAYLOAD,2024-03-05 14:02:27,14.9832556,0.0002864,69.9978,275.2998,270.0639,90.0191,4.0061e-06,-4.5e-07,0.0,0 STARLINK-5835,1 55772U 23028AH  24065.58504427 -.00000045  00000-0  40061-5 0  9999,2 55772  69.9978 275.2998 0002864 270.0639  90.0191 14.98325560 56571,6950.207,96.107,574.062,570.081,0.0
55772.0,STARLINK-5835,PAYLOAD,2024-03-05 20:27:00,14.98324037,0.0002624,69.9982,274.6257,263.1129,96.9732,1.5039e-05,8.6e-07,0.0,0 STARLINK-5835,1 55772U 23028AH  24065.85208528  .00000086  00000-0  15039-4 0  9992,2 55772  69.9982 274.6257 0002624 263.1129  96.9732 14.98324037 56617,6950.211,96.107,573.9,570.253,0.0
55772.0,STARLINK-5835,PAYLOAD,2024-03-06 14:04:28,14.98330014,0.000287,69.9983,272.7742,270.0396,90.0434,-5.0097e-06,-1.53e-06,0.0,0 STARLINK-5835,1 55772U 23028AH  24066.58644310 -.00000153  00000-0 -50097-5 0  9997,2 55772  69.9983 272.7742 0002870 270.0396  90.0434 14.98330014 56720,6950.193,96.107,574.053,570.063,0.0
55772.0,STARLINK-5835,PAYLOAD,2024-03-06 23:41:17,14.9832965,0.0002879,69.9982,271.7643,270.1472,89.9357,-1.9473e-05,-3.25e-06,0.0,0 STARLINK-5835,1 55772U 23028AH  24066.98700386 -.00000325  00000-0 -19473-4 0  9990,2 55772  69.9982 271.7643 0002879 270.1472  89.9357 14.98329650 56784,6950.194,96.107,574.06,570.058,0.0
55772.0,STARLINK-5835,PAYLOAD,2024-03-07 14:06:29,14.98326926,0.0002955,69.998,270.2495,270.3139,89.7681,5.9746e-05,6.2e-06,0.0,0 STARLINK-5835,1 55772U 23028AH  24067.58784388  .00000620  00000-0  59746-4 0  9994,2 55772  69.9980 270.2495 0002955 270.3139  89.7681 14.98326926 56879,6950.202,96.107,574.121,570.014,0.0
55772.0,STARLINK-5835,PAYLOAD,2024-03-07 23:43:18,14.98328087,0.0002955,69.9981,269.2397,270.205,89.877,6.0285e-05,6.26e-06,0.0,0 STARLINK-5835,1 55772U 23028AH  24067.98840377  .00000626  00000-0  60285-4 0  9995,2 55772  69.9981 269.2397 0002955 270.2050  89.8770 14.98328087 56937,6950.199,96.107,574.118,570.01,0.0
55772.0,STARLINK-5835,PAYLOAD,2024-03-08 12:32:22,14.98332447,0.0003009,69.9978,267.8928,270.5352,89.5462,5.8306e-05,6.03e-06,0.0,0 STARLINK-5835,1 55772U 23028AH  24068.52248096  .00000603  00000-0  58306-4 0  9992,2 55772  69.9978 267.8928 0003009 270.5352  89.5462 14.98332447 57016,6950.185,96.107,574.142,569.959,0.0
55772.0,STARLINK-5835,PAYLOAD,2024-03-08 23:45:18,14.9833517,0.0002972,69.9979,266.7144,270.3251,89.7568,8.1255e-05,8.77e-06,0.0,0 STARLINK-5835,1 55772U 23028AH  24068.98979730  .00000877  00000-0  81255-4 0  9990,2 55772  69.9979 266.7144 0002972 270.3251  89.7568 14.98335170 57081,6950.177,96.107,574.107,569.976,0.0
55772.0,STARLINK-5835,PAYLOAD,2024-03-09 06:09:51,14.98331762,0.0002917,69.998,266.0405,270.3963,89.6862,3.6052e-05,3.37e-06,0.0,0 STARLINK-5835,1 55772U 23028AH  24069.25684030  .00000337  00000-0  36052-4 0  9993,2 55772  69.9980 266.0405 0002917 270.3963  89.6862 14.98331762 57129,6950.187,96.107,574.08,570.025,0.0
55772.0,STARLINK-5835,PAYLOAD,2024-03-09 18:58:55,14.98329577,0.0002931,69.998,264.6942,268.7997,91.2826,-3.3688e-06,-1.33e-06,0.0,0 STARLINK-5835,1 55772U 23028AH  24069.79092187 -.00000133  00000-0 -33688-5 0  9997,2 55772  69.9980 264.6942 0002931 268.7997  91.2826 14.98329577 57202,6950.194,96.107,574.096,570.022,0.0
